1 56488U 23064AS  25352.33345355  .00001961  00000+0  17209-3 0  9992
2 56488  70.0000 309.6831 0003008 274.0327  86.0489 14.98338686144040
